[{"OBJECT_NAME":"HULIANWANG DIGUI-113","OBJECT_ID":"2025-285J","EPOCH":"2026-03-09T17:19:49.637856","MEAN_MOTION":13.29330881,"ECCENTRICITY":1.344e-5,"INCLINATION":50.0088,"RA_OF_ASC_NODE":142.3998,"ARG_OF_PERICENTER":310.1866,"MEAN_ANOMALY":49.8994,"EPHEMERIS_TYPE":0,"CLASSIFICATION_TYPE":"U","NORAD_CAT_ID":66923,"ELEMENT_SET_NO":999,"REV_AT_EPOCH":1283,"BSTAR":0.0001136278,"MEAN_MOTION_DOT":-7.1e-7,"MEAN_MOTION_DDOT":0},{"OBJECT_NAME":"DELTA 1 DEB","OBJECT_ID":"1973-086EM","EPOCH":"2026-03-09T11:30:31.760064","MEAN_MOTION":12.94084043,"ECCENTRICITY":0.01921368,"INCLINATION":102.6113,"RA_OF_ASC_NODE":272.351,"ARG_OF_PERICENTER":58.869,"MEAN_ANOMALY":2.5921,"EPHEMERIS_TYPE":0,"CLASSIFICATION_TYPE":"U","NORAD_CAT_ID":7175,"ELEMENT_SET_NO":999,"REV_AT_EPOCH":45605,"BSTAR":0.0026700319,"MEAN_MOTION_DOT":7.48e-6,"MEAN_MOTION_DDOT":0}]
